
# C41 (GNSS)
1 44864U 19090A   25264.46373029 -.00000014  00000+0  00000+0 0  9992
2 44864  56.3199  71.6882 0015497 287.0796  81.5351  1.86231655 39235

# C42 (GNSS)
1 44865U 19090B   25265.12082361 -.00000019  00000+0  00000+0 0  9998
2 44865  56.3243  71.7007 0012944 302.5305 236.2531  1.86231629 39228

# C60 (GNSS)
1 45344U 20017A   25265.52315088 -.00000146  00000+0  00000+0 0  9992
2 45344   2.8468  42.2106 0001455 279.4550 308.3358  1.00272988 20573

# C61 (GNSS)
1 45807U 20040A   25265.64536833 -.00000358  00000+0  00000+0 0  9993
2 45807   1.7904  65.6708 0004287 329.5727 309.4122  1.00269943 19381

# C62 (GNSS)
1 56564U 23066A   25265.62260704 -.00000118  00000+0  00000+0 0  9999
2 56564   1.0003 296.4938 0005811 213.4801 235.9584  1.00272107  8719

# C50 (GNSS)
1 58654U 23207A   25257.84021662 -.00000003  00000+0  00000+0 0  9994
2 58654  55.6103  71.5942 0004602 147.7169 212.3485  1.86230208 11710

# E24 (GNSS)
1 40889U 15045A   25264.58057243 -.00000009  00000+0  00000+0 0  9995
2 40889  55.0363 229.0247 0003863  17.1421 342.8190  1.70473132 62435

# E30 (GNSS)
1 40890U 15045B   25264.80123512 -.00000008  00000+0  00000+0 0  9994
2 40890  55.0351 229.0138 0002189 349.5989  10.3448  1.70473173 62465

# E07 (GNSS)
1 41859U 16069A   25262.91725260  .00000029  00000+0  00000+0 0  9997
2 41859  55.3280 108.5711 0002657 345.8370  14.2533  1.70473918 54798

# E08 (GNSS)
1 41175U 15079B   25262.84399051  .00000030  00000+0  00000+0 0  9997
2 41175  55.6580 108.6809 0002833  15.9078 344.1990  1.70473861 60583

# E09 (GNSS)
1 41174U 15079A   25264.97022861  .00000030  00000+0  00000+0 0  9994
2 41174  55.6607 108.6252 0003114   7.5718 352.5278  1.70474087 60207

# E01 (GNSS)
1 41550U 16030B   25264.39801651 -.00000010  00000+0  00000+0 0  9997
2 41550  55.1842 229.0843 0003763 247.5013 112.4071  1.70473620 58088

# E02 (GNSS)
1 41549U 16030A   25265.31354052 -.00000006  00000+0  00000+0 0  9991
2 41549  55.1844 229.0609 0003420 327.7952  32.1329  1.70473192 58102

# E03 (GNSS)
1 41860U 16069B   25263.94418140  .00000030  00000+0  00000+0 0  9991
2 41860  55.3265 108.5383 0003200  33.6542 326.4633  1.70474174 55061

# E04 (GNSS)
1 41861U 16069C   25264.89847420  .00000029  00000+0  00000+0 0  9992
2 41861  55.3293 108.5193 0001891 309.7908  50.2874  1.70474566 54949

# E05 (GNSS)
1 41862U 16069D   25262.69803646  .00000029  00000+0  00000+0 0  9991
2 41862  55.3263 108.5733 0001278 336.2445  23.8471  1.70474166 55033

# E21 (GNSS)
1 43055U 17079A   25262.60091282 -.00000011  00000+0  00000+0 0  9997
2 43055  55.1631 228.9508 0003112 274.0152  85.9013  1.70473927 48370

# E25 (GNSS)
1 43056U 17079B   25264.65199962 -.00000009  00000+0  00000+0 0  9996
2 43056  55.1627 228.8946 0004431 282.8408  77.0578  1.70474098 48421

# E27 (GNSS)
1 43057U 17079C   25263.11292191 -.00000012  00000+0  00000+0 0  9999
2 43057  55.1613 228.9348 0003805 294.6908  65.2198  1.70473974 48388

# E31 (GNSS)
1 43058U 17079D   25263.33299237 -.00000012  00000+0  00000+0 0  9992
2 43058  55.1614 228.9265 0004912 278.4108  81.4830  1.70474003 48411

# E36 (GNSS)
1 43566U 18060C   25258.98363863 -.00000107  00000+0  00000+0 0  9994
2 43566  57.2517 349.1941 0003379 267.6081  92.3857  1.70476146 44510

# E13 (GNSS)
1 43567U 18060D   25260.96427996 -.00000110  00000+0  00000+0 0  9998
2 43567  57.2508 349.1403 0004489 263.4560  96.5264  1.70475992 44531

# E15 (GNSS)
1 43564U 18060A   25264.99562007 -.00000106  00000+0  00000+0 0  9990
2 43564  57.2472 349.0273 0006235 265.8627  94.1116  1.70476205 44597

# E33 (GNSS)
1 43565U 18060B   25264.62825154 -.00000106  00000+0  00000+0 0  9996
2 43565  57.2511 349.0403 0004862 238.1976 121.7993  1.70476093 44631

# E34 (GNSS)
1 49809U 21116A   25259.67254214 -.00000109  00000+0  00000+0 0  9994
2 49809  57.2408 349.0665 0003991 215.3559 162.5615  1.70476038 23527

# E10 (GNSS)
1 49810U 21116B   25264.29420161 -.00000107  00000+0  00000+0 0  9994
2 49810  57.2405 348.9406 0003393 212.1866 234.7288  1.70476448 23623

# R01 (GNSS)
1 36111U 09070A   25264.23935398  .00000024  00000+0  00000+0 0  9993
2 36111  64.8527  80.1574 0001616 348.6248 218.9457  2.13103704122697

# R02 (GNSS)
1 39155U 13019A   25264.02505627  .00000032  00000+0  00000+0 0  9996
2 39155  65.2692  82.6475 0022575 226.5640 133.2938  2.13104532 96547

# R03 (GNSS)
1 37867U 11064A   25265.17300985  .00000021  00000+0  00000+0 0  9997
2 37867  65.1168  81.9298 0022038 230.7015 242.1638  2.13101535108051

# R04 (GNSS)
1 44850U 19088A   25265.08109851  .00000023  00000+0  00000+0 0  9992
2 44850  65.4153  82.6881 0011655 246.5689 113.3496  2.13102043 45000

# R05 (GNSS)
1 43508U 18053A   25265.13662646  .00000023  00000+0  00000+0 0  9994
2 43508  65.4283  82.8580 0007199 213.6950 146.3004  2.13102255 56564

# R06 (GNSS)
1 36112U 09070B   25265.43216701  .00000015  00000+0  00000+0 0  9997
2 36112  64.8387  79.9658 0006003 136.4600  36.1066  2.13101163122728

# R07 (GNSS)
1 37868U 11064B   25264.10815149  .00000030  00000+0  00000+0 0  9993
2 37868  65.1229  82.0426 0019062 231.0628 325.3906  2.13102994108021

# R08 (GNSS)
1 37869U 11064C   25264.39567782  .00000027  00000+0  00000+0 0  9998
2 37869  65.1298  82.0521 0023860 247.1891 126.1781  2.13101769108044

# R09 (GNSS)
1 40315U 14075A   25265.35353635 -.00000004  00000+0  00000+0 0  9996
2 40315  63.6159 199.6422 0021136 209.5765 150.2976  2.13101402 84146

# R10 (GNSS)
1 32395U 07065C   25264.18297069 -.00000018  00000+0  00000+0 0  9999
2 32395  64.3255 201.0571 0017065 358.7515 142.4408  2.13100027137996

# R11 (GNSS)
1 46805U 20075A   25264.05646892 -.00000020  00000+0  00000+0 0  9997
2 46805  64.5980 201.4555 0008098 238.1158 121.7903  2.13099869 38171

# R12 (GNSS)
1 44299U 19030A   25264.81833421 -.00000011  00000+0  00000+0 0  9991
2 44299  64.3673 201.6510 0011939 278.9929 256.2835  2.13102174 49200

# R13 (GNSS)
1 32393U 07065A   25265.34487671 -.00000004  00000+0  00000+0 0  9991
2 32393  64.3168 200.9485 0001600  49.0202 130.0990  2.13101288138068

# R14 (GNSS)
1 42939U 17055A   25265.17598818 -.00000006  00000+0  00000+0 0  9997
2 42939  64.0780 201.0051 0009024 237.8281 122.0748  2.13102006 62264

# R15 (GNSS)
1 43687U 18086A   25260.07228230 -.00000019  00000+0  00000+0 0  9999
2 43687  64.2944 201.8145 0010476 257.6899 102.1777  2.13101907 53461

# R16 (GNSS)
1 54377U 22161A   25265.29369581 -.00000005  00000+0  00000+0 0  9995
2 54377  64.7396 201.6021 0010582 220.0794 139.8328  2.13102121 21926

# R17 (GNSS)
1 41330U 16008A   25265.33758084 -.00000052  00000+0  00000+0 0  9990
2 41330  65.1776 322.1935 0013385 212.0080 147.9869  2.13102651 74919

# R18 (GNSS)
1 39620U 14012A   25264.92179484 -.00000052  00000+0  00000+0 0  9997
2 39620  65.4512 323.0470 0012269 307.5675  52.3977  2.13103301 89528

# R19 (GNSS)
1 54031U 22130A   25264.98010538 -.00000056  00000+0  00000+0 0  9994
2 54031  64.4254 324.0196 0013137 188.6148 171.4373  2.13101686 22970

# R20 (GNSS)
1 32276U 07052B   25265.55855199 -.00000056  00000+0  00000+0 0  9991
2 32276  65.7400 325.0562 0009258 307.5823  89.2196  2.13103214139385

# R21 (GNSS)
1 40001U 14032A   25265.09507369 -.00000052  00000+0  00000+0 0  9990
2 40001  65.3868 322.8098 0009300 207.7027 152.3239  2.13106017 87744

# R22 (GNSS)
1 52984U 22075A   25264.69186914 -.00000055  00000+0  00000+0 0  9996
2 52984  64.4530 323.9376 0012976 271.3113  88.6150  2.13102206 24997

# R23 (GNSS)
1 36402U 10007C   25264.28703075 -.00000052  00000+0  00000+0 0  9990
2 36402  65.5726 323.5590 0002466 224.3156 147.9525  2.13106281121007

# R24 (GNSS)
1 45358U 20018A   25264.33870306 -.00000051  00000+0  00000+0 0  9990
2 45358  64.5148 321.8611 0011872 238.5160 121.4436  2.13102562 42932

# R25 (GNSS)
1 32275U 07052A   25264.03080457 -.00000053  00000+0  00000+0 0  9996
2 32275  65.7251 324.9848 0005452 230.3765 129.6500  2.13104204139325
